     2.11           N: GPS NAV DATA                         RINEX VERSION / TYPE
teqc  2019Feb25                         20221121 12:25:08UTCPGM / RUN BY / DATE
OSX ker:10.11.6|Core i5|gcc 4.3 -m64|OSX ker:10.10+|=+      COMMENT
    4.6566D-09  1.4901D-08 -5.9605D-08 -1.1921D-07          ION ALPHA
    7.9872D+04  8.1920D+04 -6.5536D+04 -4.5875D+05          ION BETA
    9.313225746155D-10 9.769962616701D-15   233472     1540 DELTA-UTC: A0,A1,T,W
                                                            END OF HEADER
27 09  7 13  1 59 44.0 6.514880806208D-05 3.069544618484D-12 0.000000000000D+00
    2.100000000000D+01 4.321875000000D+01 4.126957618636D-09-2.648240843529D+00
    2.069398760796D-06 2.128606219776D-02 5.187466740608D-06 5.153768993378D+03
    9.358400000000D+04 2.458691596985D-07 1.812181217010D+00 1.303851604462D-07
    9.747205918822D-01 2.790625000000D+02-1.573215797267D+00-7.701749380204D-09
    4.771627328860D-10 1.000000000000D+00 1.540000000000D+03 0.000000000000D+00
    2.000000000000D+00 0.000000000000D+00-4.190951585770D-09 2.100000000000D+01
    8.659200000000D+04 4.000000000000D+00
 3 09  7 13  1 59 44.0 4.193116910756D-04 5.229594535194D-12 0.000000000000D+00
    0.000000000000D+00-4.306250000000D+01 5.253075954556D-09 2.628440418488D+00
   -2.285465598106D-06 1.205914863385D-02 1.134164631367D-05 5.153645473480D+03
    9.358400000000D+04 9.313225746155D-09-2.434148947366D+00-2.048909664154D-07
    9.264917976794D-01 1.409687500000D+02 9.130784422507D-01-8.077836474313D-09
   -3.714440435639D-11 1.000000000000D+00 1.540000000000D+03 0.000000000000D+00
    2.000000000000D+00 0.000000000000D+00-4.190951585770D-09 0.000000000000D+00
    8.749800000000D+04 4.000000000000D+00
17 09  7 13  1 59 44.0 7.008202373981D-05 2.387423592154D-12 0.000000000000D+00
    1.700000000000D+01-2.378125000000D+01 4.585190991609D-09-2.309945954567D+00
   -1.158565282822D-06 4.576452076435D-03 1.062639057636D-05 5.153709440231D+03
    9.358400000000D+04 6.705522537231D-08-2.301627473211D+00-1.173466444016D-07
    9.597689546865D-01 1.729375000000D+02-2.633191495109D+00-7.927115910482D-09
    5.821671067396D-11 1.000000000000D+00 1.540000000000D+03 0.000000000000D+00
    2.000000000000D+00 0.000000000000D+00-1.024454832077D-08 1.700000000000D+01
    8.764200000000D+04 4.000000000000D+00
 9 09  7 13  2  0  0.0 6.619142368436D-05 2.046363078989D-12 0.000000000000D+00
    2.800000000000D+01 3.625000000000D+01 4.280178286606D-09 2.904838661276D-01
    1.739710569382D-06 2.074310241733D-02 5.999580025673D-06 5.153629676819D+03
    9.360000000000D+04-3.371387720108D-07 1.836378083924D+00-7.823109626770D-08
    9.766742663120D-01 2.755937500000D+02 1.492598083101D+00-8.406421589773D-09
    2.810831368123D-10 1.000000000000D+00 1.540000000000D+03 0.000000000000D+00
    2.000000000000D+00 0.000000000000D+00-5.587935447693D-09 2.800000000000D+01
    8.896200000000D+04 4.000000000000D+00
32 09  7 13  2  0  0.0 2.329037524760D-04-6.025402399246D-12 0.000000000000D+00
    9.900000000000D+01-2.087500000000D+01 4.536260382024D-09 1.999188707834D+00
   -1.139938831329D-06 1.322611887008D-02 5.796551704407D-06 5.153776287079D+03
    9.360000000000D+04 2.216547727585D-07-1.395827515076D-01 8.568167686462D-08
    9.636360147822D-01 2.635000000000D+02-1.144343172406D+00-7.984261147953D-09
   -5.368080744967D-10 1.000000000000D+00 1.540000000000D+03 0.000000000000D+00
    2.000000000000D+00 0.000000000000D+00-3.259629011154D-09 9.900000000000D+01
    8.914200000000D+04 4.000000000000D+00
14 09  7 13  2  0  0.0-8.088443428278D-05 5.684341886081D-12 0.000000000000D+00
    1.500000000000D+01 1.681250000000D+01 3.420856778130D-09-2.820671049117D+00
    9.126961231232D-07 4.613151540980D-03 1.066550612450D-05 5.153627670288D+03
    9.360000000000D+04-2.235174179077D-08 8.612150529495D-01-3.725290298462D-09
    9.882772328222D-01 1.873437500000D+02-2.167778506230D+00-7.457096332280D-09
    1.178620522847D-11 1.000000000000D+00 1.540000000000D+03 0.000000000000D+00
    2.000000000000D+00 0.000000000000D+00-9.313225746155D-09 1.500000000000D+01
    9.007200000000D+04 4.000000000000D+00
20 09  7 13  2  0  0.0 7.748976349831D-05-1.023181539495D-12 0.000000000000D+00
    7.700000000000D+01-1.187500000000D+01 5.201645240832D-09-8.286509646388D-01
   -6.854534149170D-07 3.864833270200D-03 5.424022674561D-06 5.153571802139D+03
    9.360000000000D+04-4.842877388000D-08-2.500605898330D-01 7.636845111847D-08
    9.415753198658D-01 2.625625000000D+02 1.367549356880D+00-8.575000040314D-09
   -4.282321233011D-10 1.000000000000D+00 1.540000000000D+03 0.000000000000D+00
    2.000000000000D+00 0.000000000000D+00-6.519258022308D-09 7.700000000000D+01
    9.109200000000D+04 4.000000000000D+00
11 09  7 13  4  0  0.0-1.037353649735D-05-1.591615728103D-12 0.000000000000D+00
    1.500000000000D+01 6.671875000000D+01 6.458840465202D-09 2.126195097863D+00
    3.367662429810D-06 9.481625049375D-03 8.225440979004D-06 5.153690570831D+03
    1.008000000000D+05-2.235174179077D-07-1.488229255271D+00-1.117587089539D-07
    8.888947825613D-01 1.822812500000D+02 7.045447394821D-01-8.890727477343D-09
    3.067984936744D-10 1.000000000000D+00 1.540000000000D+03 0.000000000000D+00
    2.000000000000D+00 0.000000000000D+00-1.164153218269D-08 1.500000000000D+01
    9.361800000000D+04 4.000000000000D+00
17 09  7 13  3 59 44.0 7.009925320745D-05 2.387423592154D-12 0.000000000000D+00
    3.600000000000D+01-2.746875000000D+01 4.543403536708D-09-1.259501314302D+00
   -1.331791281700D-06 4.576023435220D-03 1.110695302486D-05 5.153712018967D+03
    1.007840000000D+05 6.705522537231D-08-2.301684790342D+00-2.421438694000D-08
    9.597696744422D-01 1.635312500000D+02-2.633477565814D+00-7.927830225950D-09
    1.125046862718D-10 1.000000000000D+00 1.540000000000D+03 0.000000000000D+00
    2.000000000000D+00 0.000000000000D+00-1.024454832077D-08 3.600000000000D+01
    9.361800000000D+04 4.000000000000D+00
28 09  7 13  4  0  0.0-2.590566873550D-05-1.136868377216D-13 0.000000000000D+00
    1.130000000000D+02-5.687500000000D+01 4.663765693132D-09-7.224591837020D-01
   -2.680346369743D-06 1.495006098412D-02 6.014481186867D-06 5.153647047043D+03
    1.008000000000D+05-6.332993507385D-08 2.947578073361D+00 2.793967723846D-07
    9.673879242072D-01 2.709375000000D+02-2.022073774643D+00-8.405350116571D-09
   -5.714523747137D-12 1.000000000000D+00 1.540000000000D+03 0.000000000000D+00
    2.800000000000D+00 0.000000000000D+00-1.071020960808D-08 1.130000000000D+02
    9.361800000000D+04 4.000000000000D+00
32 09  7 13  4  0  0.0 2.328599803150D-04-6.025402399246D-12 0.000000000000D+00
    1.060000000000D+02-1.990625000000D+01 4.546617956316D-09 3.049285641729D+00
   -9.760260581970D-07 1.322566950694D-02 6.128102540970D-06 5.153777267456D+03
    1.008000000000D+05 1.266598701477D-07-1.396403070936D-01 2.030283212662D-07
    9.636321687706D-01 2.597500000000D+02-1.144321865005D+00-7.954617056015D-09
   -4.889489381144D-10 1.000000000000D+00 1.540000000000D+03 0.000000000000D+00
    2.800000000000D+00 0.000000000000D+00-3.259629011154D-09 1.060000000000D+02
    9.361800000000D+04 4.000000000000D+00
 9 09  7 13  4  0  0.0 6.620585918427D-05 2.046363078989D-12 0.000000000000D+00
    3.700000000000D+01 2.612500000000D+01 4.163387707524D-09 1.340641755430D+00
    1.050531864166D-06 2.074425492901D-02 6.087124347687D-06 5.153632574081D+03
    1.008000000000D+05-2.533197402954D-07 1.836317226532D+00-4.488974809647D-07
    9.766770253755D-01 2.722187500000D+02 1.492645247580D+00-8.201055892610D-09
    3.475144753728D-10 1.000000000000D+00 1.540000000000D+03 0.000000000000D+00
    2.000000000000D+00 0.000000000000D+00-5.587935447693D-09 3.700000000000D+01
    9.361800000000D+04 4.000000000000D+00
20 09  7 13  4  0  0.0 7.748231291771D-05-1.023181539495D-12 0.000000000000D+00
    8.200000000000D+01-1.537500000000D+01 5.250933008151D-09 2.215435034676D-01
   -7.580965757370D-07 3.864374943078D-03 5.425885319710D-06 5.153570852280D+03
    1.008000000000D+05-5.401670932770D-08-2.501223864185D-01 3.911554813385D-08
    9.415722301828D-01 2.636250000000D+02 1.367603569698D+00-8.583214668200D-09
   -4.346609625166D-10 1.000000000000D+00 1.540000000000D+03 0.000000000000D+00
    2.000000000000D+00 0.000000000000D+00-6.519258022308D-09 8.200000000000D+01
    9.361800000000D+04 4.000000000000D+00
14 09  7 13  4  0  0.0-8.084392175078D-05 5.684341886081D-12 0.000000000000D+00
    4.000000000000D+01 2.046875000000D+01 3.601221433899D-09-1.770832365613D+00
    9.816139936447D-07 4.615172045305D-03 9.926036000252D-06 5.153622789383D+03
    1.008000000000D+05 1.545995473862D-07 8.611620499646D-01-1.080334186554D-07
    9.882766710616D-01 2.066250000000D+02-2.167413919250D+00-7.522099039904D-09
   -1.446488823494D-10 1.000000000000D+00 1.540000000000D+03 0.000000000000D+00
    2.000000000000D+00 0.000000000000D+00-9.313225746155D-09 4.000000000000D+01
    9.361800000000D+04 4.000000000000D+00
27 09  7 13  4  0  0.0 6.517115980387D-05 3.069544618484D-12 0.000000000000D+00
    2.200000000000D+01 4.046875000000D+01 4.071598169835D-09-1.595791752412D+00
    2.687796950340D-06 2.128574741073D-02 5.764886736870D-06 5.153769159317D+03
    1.008000000000D+05 1.471489667892D-07 1.812125773878D+00 4.973262548447D-07
    9.747226414305D-01 2.750625000000D+02-1.573212687103D+00-7.977117993270D-09
    3.746584631717D-10 1.000000000000D+00 1.540000000000D+03 0.000000000000D+00
    2.000000000000D+00 0.000000000000D+00-4.190951585770D-09 2.200000000000D+01
    9.361800000000D+04 4.000000000000D+00
